{
  "links" : {
    "next" : "https://api.nasa.gov/neo/rest/v1/feed?start_date=2014-06-23&end_date=2014-06-23&detailed=true&api_key=t0TVs3DtDT2H8Oy2Zy8m2eVrNsAVKAexjcZXUckd",
    "prev" : "https://api.nasa.gov/neo/rest/v1/feed?start_date=2014-06-21&end_date=2014-06-21&detailed=true&api_key=t0TVs3DtDT2H8Oy2Zy8m2eVrNsAVKAexjcZXUckd",
    "self" : "https://api.nasa.gov/neo/rest/v1/feed?start_date=2014-06-22&end_date=2014-06-22&detailed=true&api_key=t0TVs3DtDT2H8Oy2Zy8m2eVrNsAVKAexjcZXUckd"
  },
  "element_count" : 10,
  "near_earth_objects" : {
    "2014-06-22" : [ {
      "links" : {
        "self" : "https://api.nasa.gov/neo/rest/v1/neo/2041429?api_key=t0TVs3DtDT2H8Oy2Zy8m2eVrNsAVKAexjcZXUckd"
      },
      "neo_reference_id" : "2041429",
      "name" : "41429 (2000 GE2)",
      "nasa_jpl_url" : "http://ssd.jpl.nasa.gov/sbdb.cgi?sstr=2041429",
      "absolute_magnitude_h" : 20.6,
      "estimated_diameter" : {
        "kilometers" : {
          "estimated_diameter_min" : 0.2016299194,
          "estimated_diameter_max" : 0.4508582062
        },
        "meters" : {
          "estimated_diameter_min" : 201.6299194428,
          "estimated_diameter_max" : 450.8582061718
        },
        "miles" : {
          "estimated_diameter_min" : 0.1252869847,
          "estimated_diameter_max" : 0.2801502144
        },
        "feet" : {
          "estimated_diameter_min" : 661.5155049046,
          "estimated_diameter_max" : 1479.1936371367
        }
      },
      "is_potentially_hazardous_asteroid" : true,
      "close_approach_data" : [ {
        "close_approach_date" : "2014-06-22",
        "epoch_date_close_approach" : 1403420400000,
        "relative_velocity" : {
          "kilometers_per_second" : "14.2400713735",
          "kilometers_per_hour" : "51264.25694469",
          "miles_per_hour" : "31853.6156554381"
        },
        "miss_distance" : {
          "astronomical" : "0.2978962293",
          "lunar" : "115.8816375732",
          "kilometers" : "44564644",
          "miles" : "27691186"
        },
        "orbiting_body" : "Earth"
      } ],
      "orbital_data" : {
        "orbit_id" : "68",
        "orbit_determination_date" : "2017-04-06 09:29:09",
        "orbit_uncertainty" : "0",
        "minimum_orbit_intersection" : ".0108978",
        "jupiter_tisserand_invariant" : "4.187",
        "epoch_osculation" : "2458000.5",
        "eccentricity" : ".5552919817551426",
        "semi_major_axis" : "1.592525299226635",
        "inclination" : "2.17319489354905",
        "ascending_node_longitude" : "351.9605677733203",
        "orbital_period" : "734.0538780616956",
        "perihelion_distance" : ".7082087698238752",
        "perihelion_argument" : "297.1892484576257",
        "aphelion_distance" : "2.476841828629394",
        "perihelion_time" : "2458310.454797992013",
        "mean_anomaly" : "207.9897312554677",
        "mean_motion" : ".4904272162563833",
        "equinox" : "J2000"
      }
    }, {
      "links" : {
        "self" : "https://api.nasa.gov/neo/rest/v1/neo/2391033?api_key=t0TVs3DtDT2H8Oy2Zy8m2eVrNsAVKAexjcZXUckd"
      },
      "neo_reference_id" : "2391033",
      "name" : "391033 (2005 TR15)",
      "nasa_jpl_url" : "http://ssd.jpl.nasa.gov/sbdb.cgi?sstr=2391033",
      "absolute_magnitude_h" : 19.1,
      "estimated_diameter" : {
        "kilometers" : {
          "estimated_diameter_min" : 0.4023045798,
          "estimated_diameter_max" : 0.8995803882
        },
        "meters" : {
          "estimated_diameter_min" : 402.3045798343,
          "estimated_diameter_max" : 899.5803881691
        },
        "miles" : {
          "estimated_diameter_min" : 0.2499803991,
          "estimated_diameter_max" : 0.5589731654
        },
        "feet" : {
          "estimated_diameter_min" : 1319.8969577037,
          "estimated_diameter_max" : 2951.3793207207
        }
      },
      "is_potentially_hazardous_asteroid" : false,
      "close_approach_data" : [ {
        "close_approach_date" : "2014-06-22",
        "epoch_date_close_approach" : 1403420400000,
        "relative_velocity" : {
          "kilometers_per_second" : "3.651158373",
          "kilometers_per_hour" : "13144.1701429372",
          "miles_per_hour" : "8167.2761646489"
        },
        "miss_distance" : {
          "astronomical" : "0.2143958083",
          "lunar" : "83.3999710083",
          "kilometers" : "32073156",
          "miles" : "19929336"
        },
        "orbiting_body" : "Earth"
      } ],
      "orbital_data" : {
        "orbit_id" : "85",
        "orbit_determination_date" : "2017-05-22 06:20:49",
        "orbit_uncertainty" : "0",
        "minimum_orbit_intersection" : ".193627",
        "jupiter_tisserand_invariant" : "3.606",
        "epoch_osculation" : "2458000.5",
        "eccentricity" : ".4335653594914345",
        "semi_major_axis" : "2.11616308374304",
        "inclination" : "3.916120283733576",
        "ascending_node_longitude" : "214.1044083600514",
        "orbital_period" : "1124.403341852016",
        "perihelion_distance" : "1.198668075597487",
        "perihelion_argument" : "59.36047370923067",
        "aphelion_distance" : "3.033658091888594",
        "perihelion_time" : "2457963.083108330895",
        "mean_anomaly" : "11.97975895259341",
        "mean_motion" : ".3201698061542937",
        "equinox" : "J2000"
      }
    }, {
      "links" : {
        "self" : "https://api.nasa.gov/neo/rest/v1/neo/3092110?api_key=t0TVs3DtDT2H8Oy2Zy8m2eVrNsAVKAexjcZXUckd"
      },
      "neo_reference_id" : "3092110",
      "name" : "(1992 BC)",
      "nasa_jpl_url" : "http://ssd.jpl.nasa.gov/sbdb.cgi?sstr=3092110",
      "absolute_magnitude_h" : 19.8,
      "estimated_diameter" : {
        "kilometers" : {
          "estimated_diameter_min" : 0.2914439045,
          "estimated_diameter_max" : 0.6516883822
        },
        "meters" : {
          "estimated_diameter_min" : 291.4439045349,
          "estimated_diameter_max" : 651.6883821679
        },
        "miles" : {
          "estimated_diameter_min" : 0.1810947904,
          "estimated_diameter_max" : 0.4049402617
        },
        "feet" : {
          "estimated_diameter_min" : 956.1808197541,
          "estimated_diameter_max" : 2138.0853117517
        }
      },
      "is_potentially_hazardous_asteroid" : false,
      "close_approach_data" : [ {
        "close_approach_date" : "2014-06-22",
        "epoch_date_close_approach" : 1403420400000,
        "relative_velocity" : {
          "kilometers_per_second" : "8.0453686149",
          "kilometers_per_hour" : "28963.3270137592",
          "miles_per_hour" : "17996.6850547439"
        },
        "miss_distance" : {
          "astronomical" : "0.227633614",
          "lunar" : "88.5494766235",
          "kilometers" : "34053504",
          "miles" : "21159866"
        },
        "orbiting_body" : "Earth"
      } ],
      "orbital_data" : {
        "orbit_id" : "42",
        "orbit_determination_date" : "2017-04-06 09:18:23",
        "orbit_uncertainty" : "0",
        "minimum_orbit_intersection" : ".104527",
        "jupiter_tisserand_invariant" : "4.608",
        "epoch_osculation" : "2458000.5",
        "eccentricity" : ".3523205023240839",
        "semi_major_axis" : "1.421408610854706",
        "inclination" : "14.34584069834662",
        "ascending_node_longitude" : "123.3562380998592",
        "orbital_period" : "618.9803182538711",
        "perihelion_distance" : ".920617215070598",
        "perihelion_argument" : "77.21062958258037",
        "aphelion_distance" : "1.922200006638815",
        "perihelion_time" : "2457999.293276804106",
        "mean_anomaly" : ".7018322517057791",
        "mean_motion" : ".5816016913357624",
        "equinox" : "J2000"
      }
    } ]
  }
}